#dP2018  6 10  0  0  0.00000000      96 __u+U ITR00 FIT  IAC
## 2005      0.00000000   900.00000000 58279 0.0000000000000
+   85   C01C02C03C04C05C06C07C08C09C10C11C12C13C14E01E02E03
+        E04E05E07E08E09E11E12E14E18E19E24E26E30G01G02G03G05
+        G06G07G08G09G10G11G12G13G14G15G16G17G18G19G20G21G22
+        G23G24G25G26G27G28G29G30G31G32J01R01R02R03R04R05R07
+        R08R09R10R11R13R14R15R16R17R18R19R20R21R22R23R24R26
++        13  0 12 13 12  9  9  9  9  9  8  8  9  8  6  7  7
++         6  7  7  7  7  7  6  7  7  6  7  6  7  4  4  4  4
++         3  3  4  3  4  4  4  4  4  4  4  4  4  4  4  4  4
++         4  4  4  4  4  4  4  3  4  4 10  6  6  5  6  6  6
++         6  6  6  5  5  5  5  6  5  5  5  6  5  5  6  6  9
%c M  cc GPS ccc cccc cccc cccc cccc ccccc ccccc ccccc ccccc
%c cc cc ccc ccc cccc cccc cccc cccc ccccc ccccc ccccc ccccc
%f  0.0000000  0.000000000  0.00000000000  0.000000000000000
%f  0.0000000  0.000000000  0.00000000000  0.000000000000000
%i    0    0    0    0      0      0      0      0         0
%i    0    0    0    0      0      0      0      0         0
/* INFORMATION & ANALYSIS CENTER (IAC) OF MCC   (RAPID DATA)
/* S/V CLOCKS ARE ALIGNED TO GPS & GLONASS TIME RESPECTIVELY
/* USING THE BROADCAST EPHEMERIS                            
/* PCV:IGS14_2000 OL/AL:FES2004  NONE     YN ORB:CoN CLK:CoN
*  2018 06 10 14 30  0.00000000
PC01 -32344.665517  27032.319143  -1065.113919   -185.141825
PC02      0.000000      0.000000      0.000000 999999.999999
PC03 -14766.386073  39517.610506   -502.015532     65.370730
PC04 -39599.823256  14451.384373   -461.964078    -52.698185
PC05  21821.527242  36079.363549    954.520497    374.136309
PC06  -8377.555559  33827.779387  24240.621727     48.983075
PC07 -18673.872873  20928.685576 -31480.858508    114.217479
PC08 -24136.655958  33447.275875   8229.765851    383.700330
PC09   1670.548244  40774.129003  11430.635921    -50.216497
PC10    601.799032  25787.955912 -33195.253657   -298.938246
PC11   3346.405853 -27009.904292  -6277.888745   -543.991487
PC12  14083.907901 -20869.952533  12179.389867    472.874844
PC13 -13335.719282  34609.420090  19837.036661   -370.020734
PC14  -4604.643618 -21525.920842 -17056.184902    319.361786
PE01  26532.026029   8964.160531  -9574.024775   -365.114158
PE02 -26556.920971  -8940.327302   9535.408912     15.957909
PE03 -19129.432319 -17060.000615  14824.470905    -41.910059
PE04  17073.382989  -3500.461463 -23912.833132    -52.187707
PE05  -9971.640652 -27705.844518  -3001.680742    248.496747
PE07  -5011.348819  22111.024053  19043.334693     17.734320
PE08 -16926.522236   3594.505472  24028.478987   6566.973974
PE09   4696.287586 -22098.107123 -19116.524960   6767.102218
PE11  14956.860162 -25268.654666  -3635.599444   1000.567540
PE12  21780.996068 -13251.080412  15019.586483   4351.866229
PE14 -20738.121098   1392.440181 -25027.499092   6569.087524
PE18  14851.422641   1598.807712  18099.057837   6143.130628
PE19  18702.005070  18615.782767 -13406.799058     23.111124
PE24  12728.610700 -13758.833925  22897.622674   6660.387237
PE26    179.308029  22326.179901  19435.597874   5837.922607
PE30 -27817.523024   3373.513826  -9550.857797   5769.511003
PG01   5655.735131 -17985.992008 -18731.194635    -55.072243
PG02 -21562.060936  15264.456585   1255.432669     89.903594
PG03  -4804.510683 -18037.091351 -18939.194469     86.652116
PG05 -16129.687922   7355.565526  19738.982797     -6.396408
PG06 -23255.622616   3935.732274 -12207.107446    397.121792
PG07 -11015.915921 -11257.416604  21652.152379    177.562522
PG08   5729.840510 -24306.611188   8858.847221   -104.290142
PG09  -8585.145740 -22270.325628  11608.797697    514.577962
PG10  24180.355240  10295.510322  -4351.409072    187.844993
PG11   5669.362565 -23548.585261 -11635.639824   -734.201000
PG12    151.253160  16684.495149 -20902.526007    328.258633
PG13 -12334.036008  18268.767876  14709.954109    -93.621606
PG14  15115.528641  -4035.419596 -21140.045131    -97.332832
PG15  -2957.603243  25231.174889   6824.033873   -352.863838
PG16  16844.633154  -4458.047468  20013.980533     21.900343
PG17 -13825.047651  -6952.106157 -21219.655826    -89.615426
PG18  13282.003734 -19313.379117 -12774.920186     19.948237
PG19 -15073.765992   2487.838219 -22039.630532   -429.528990
PG20  20477.473218  15145.913394   7584.872891    510.183631
PG21  14480.002957   8901.142517  21208.102994   -383.302560
PG22   4228.773859 -15500.889476 -20907.080410   -421.308889
PG23   -921.270013 -26305.972066    671.730839   -216.052502
PG24  -8678.625977  19320.388392 -15966.894503    -50.960619
PG25  14384.274222  18480.064073 -12934.555070   -598.769051
PG26  23053.324875   2073.013102  13134.139044   -120.226315
PG27  12125.218270 -14938.603558  18111.547417    366.445925
PG28 -22187.240379 -14428.324359  -1244.179212    722.533571
PG29   5165.580125  24099.758050   9892.428048    434.856203
PG30 -19373.073842  -4444.288896  17706.433402     64.124428
PG31  24157.224743  -4833.068808 -10418.961917    115.557002
PG32  14813.669256   6854.932591 -20928.793243   -496.351374
PJ01 -26084.782326  22559.472403  29412.549810   -225.084925
PR01  16644.913235   9643.433549 -16733.611571     27.457945
PR02   7057.684529  -8862.642736 -22805.605063    314.119250
PR03  -5885.944080 -20489.579467 -13930.330713    134.596334
PR04 -15577.391750 -19889.299702   3494.372000    264.266474
PR05 -16197.460624  -7806.966411  18097.209967    -22.236386
PR07   6146.323313  20682.052634  13675.011483    -39.717645
PR08  15297.292446  20225.798093  -2709.448243     22.806330
PR09 -19433.376940   8178.751762 -14397.692429     24.069179
PR10  -2712.922672  10758.761154 -22998.180811     25.851372
PR11  16395.895924   7551.199551 -17988.649052    -30.933687
PR13  19216.165062  -8364.629602  14511.615017    -11.261940
PR14   2744.312629 -11012.048958  22850.971408     28.060648
PR15 -12613.874022  -8616.935510  20401.711914    -11.486102
PR16 -25204.304185    442.941655   3492.069325     94.567167
PR17   7357.857376 -23148.913649  -7831.415829    139.087184
PR18  -3372.562151 -14516.214482 -20672.247222    198.772885
PR19 -12360.547165   2084.469045 -22219.468797    -54.448133
PR20 -14561.033564  18565.581284  -9759.776153   -341.123922
PR21  -7148.655709  23066.810149   8184.372314     12.493836
PR22   4478.437603  12964.959120  21537.948083    -50.063821
PR23  13532.770085  -6186.893578  20705.241867    158.892636
PR24  14039.088148 -19352.990345   8834.188831   -167.417504
PR26 -14323.354002  18289.620979 -10504.953597     25.608982
EOF
